{
  "type": "FeatureCollection",
  "features": [
    {
      "type": "Feature",
      "properties": {
        "norad_id": 34121,
        "name": "COSMOS 2251 DEB",
        "group": "cosmos-2251-debris",
        "lat": -0.23354095002296413,
        "lon": 77.52935927135972,
        "alt_km": 887.3400148152477,
        "timestamp": "2025-12-24T03:53:30.040998+00:00",
        "meta_object_name": "COSMOS 2251 DEB",
        "meta_object_id": "1993-036KS",
        "meta_epoch": "2025-12-23T05:48:32.414976",
        "meta_mean_motion": 13.9196674,
        "meta_eccentricity": 0.02409474,
        "meta_inclination": 73.9923,
        "meta_ra_of_asc_node": 79.1726,
        "meta_arg_of_pericenter": 282.4272,
        "meta_mean_anomaly": 145.7575,
        "meta_ephemeris_type": 0,
        "meta_classification_type": "U",
        "meta_norad_cat_id": 34121,
        "meta_element_set_no": 999,
        "meta_rev_at_epoch": 85271,
        "meta_bstar": 0.0011464627,
        "meta_mean_motion_dot": 1.829e-05,
        "meta_mean_motion_ddot": 0,
        "tle_line1": "1 34121U 93036KS  25357.24204184  .00001829  00000+0  11465-2 0  9997",
        "tle_line2": "2 34121  73.9923  79.1726 0240947 282.4272 145.7575 13.91966740852714"
      },
      "geometry": {
        "type": "Point",
        "coordinates": [
          77.52935927135972,
          -0.23354095002296413
        ]
      }
    },
    {
      "type": "Feature",
      "properties": {
        "norad_id": 34122,
        "name": "COSMOS 2251 DEB",
        "group": "cosmos-2251-debris",
        "lat": 12.877177777763277,
        "lon": 100.41021840844712,
        "alt_km": 622.1828011440084,
        "timestamp": "2025-12-24T03:53:30.041008+00:00",
        "meta_object_name": "COSMOS 2251 DEB",
        "meta_object_id": "1993-036KT",
        "meta_epoch": "2025-12-23T08:25:17.195808",
        "meta_mean_motion": 14.65163713,
        "meta_eccentricity": 0.008494,
        "meta_inclination": 74.0366,
        "meta_ra_of_asc_node": 98.2185,
        "meta_arg_of_pericenter": 352.0858,
        "meta_mean_anomaly": 63.7399,
        "meta_ephemeris_type": 0,
        "meta_classification_type": "U",
        "meta_norad_cat_id": 34122,
        "meta_element_set_no": 999,
        "meta_rev_at_epoch": 88840,
        "meta_bstar": 0.0010449,
        "meta_mean_motion_dot": 5.898e-05,
        "meta_mean_motion_ddot": 0,
        "tle_line1": "1 34122U 93036KT  25357.35089347  .00005898  00000+0  10449-2 0  9993",
        "tle_line2": "2 34122  74.0366  98.2185 0084940 352.0858  63.7399 14.65163713888401"
      },
      "geometry": {
        "type": "Point",
        "coordinates": [
          100.41021840844712,
          12.877177777763277
        ]
      }
    },
    {
      "type": "Feature",
      "properties": {
        "norad_id": 34127,
        "name": "COSMOS 2251 DEB",
        "group": "cosmos-2251-debris",
        "lat": -11.862118263153842,
        "lon": 19.80521145487173,
        "alt_km": 838.97522812858,
        "timestamp": "2025-12-24T03:53:30.041019+00:00",
        "meta_object_name": "COSMOS 2251 DEB",
        "meta_object_id": "1993-036KY",
        "meta_epoch": "2025-12-23T20:24:42.683328",
        "meta_mean_motion": 14.316388,
        "meta_eccentricity": 0.011469,
        "meta_inclination": 74.1797,
        "meta_ra_of_asc_node": 23.7825,
        "meta_arg_of_pericenter": 221.5549,
        "meta_mean_anomaly": 319.5544,
        "meta_ephemeris_type": 0,
        "meta_classification_type": "U",
        "meta_norad_cat_id": 34127,
        "meta_element_set_no": 999,
        "meta_rev_at_epoch": 86930,
        "meta_bstar": 0.0015092,
        "meta_mean_motion_dot": 4.299e-05,
        "meta_mean_motion_ddot": 0,
        "tle_line1": "1 34127U 93036KY  25357.85049402  .00004299  00000+0  15092-2 0  9994",
        "tle_line2": "2 34127  74.1797  23.7825 0114690 221.5549 319.5544 14.31638800869301"
      },
      "geometry": {
        "type": "Point",
        "coordinates": [
          19.80521145487173,
          -11.862118263153842
        ]
      }
    },
    {
      "type": "Feature",
      "properties": {
        "norad_id": 34128,
        "name": "COSMOS 2251 DEB",
        "group": "cosmos-2251-debris",
        "lat": 0.0020522482998536736,
        "lon": 93.40570633272694,
        "alt_km": 581.2884209625345,
        "timestamp": "2025-12-24T03:53:30.041029+00:00",
        "meta_object_name": "COSMOS 2251 DEB",
        "meta_object_id": "1993-036KZ",
        "meta_epoch": "2025-12-23T05:22:25.639968",
        "meta_mean_motion": 15.01543744,
        "meta_eccentricity": 0.00259514,
        "meta_inclination": 73.9993,
        "meta_ra_of_asc_node": 275.3212,
        "meta_arg_of_pericenter": 24.9341,
        "meta_mean_anomaly": 125.1839,
        "meta_ephemeris_type": 0,
        "meta_classification_type": "U",
        "meta_norad_cat_id": 34128,
        "meta_element_set_no": 999,
        "meta_rev_at_epoch": 89324,
        "meta_bstar": 0.0015705466,
        "meta_mean_motion_dot": 0.00020507,
        "meta_mean_motion_ddot": 0,
        "tle_line1": "1 34128U 93036KZ  25357.22390787  .00020507  00000+0  15705-2 0  9992",
        "tle_line2": "2 34128  73.9993 275.3212 0025951  24.9341 125.1839 15.01543744893246"
      },
      "geometry": {
        "type": "Point",
        "coordinates": [
          93.40570633272694,
          0.0020522482998536736
        ]
      }
    },
    {
      "type": "Feature",
      "properties": {
        "norad_id": 34129,
        "name": "COSMOS 2251 DEB",
        "group": "cosmos-2251-debris",
        "lat": 49.19820305118114,
        "lon": 117.80499533331597,
        "alt_km": 638.4411276490382,
        "timestamp": "2025-12-24T03:53:30.041039+00:00",
        "meta_object_name": "COSMOS 2251 DEB",
        "meta_object_id": "1993-036LA",
        "meta_epoch": "2025-12-23T07:47:43.113120",
        "meta_mean_motion": 14.75918625,
        "meta_eccentricity": 0.0033428,
        "meta_inclination": 74.0357,
        "meta_ra_of_asc_node": 318.8101,
        "meta_arg_of_pericenter": 37.072,
        "meta_mean_anomaly": 323.2754,
        "meta_ephemeris_type": 0,
        "meta_classification_type": "U",
        "meta_norad_cat_id": 34129,
        "meta_element_set_no": 999,
        "meta_rev_at_epoch": 61454,
        "meta_bstar": 0.001554,
        "meta_mean_motion_dot": 0.00010762,
        "meta_mean_motion_ddot": 0,
        "tle_line1": "1 34129U 93036LA  25357.32480455  .00010762  00000+0  15540-2 0  9995",
        "tle_line2": "2 34129  74.0357 318.8101 0033428  37.0720 323.2754 14.75918625614542"
      },
      "geometry": {
        "type": "Point",
        "coordinates": [
          117.80499533331597,
          49.19820305118114
        ]
      }
    },
    {
      "type": "Feature",
      "properties": {
        "norad_id": 34136,
        "name": "COSMOS 2251 DEB",
        "group": "cosmos-2251-debris",
        "lat": 72.43034615716982,
        "lon": 135.2775333769917,
        "alt_km": 577.4053610321043,
        "timestamp": "2025-12-24T03:53:30.041049+00:00",
        "meta_object_name": "COSMOS 2251 DEB",
        "meta_object_id": "1993-036LH",
        "meta_epoch": "2025-12-23T01:38:17.073024",
        "meta_mean_motion": 14.80141649,
        "meta_eccentricity": 0.00851037,
        "meta_inclination": 74.0198,
        "meta_ra_of_asc_node": 22.2612,
        "meta_arg_of_pericenter": 142.4004,
        "meta_mean_anomaly": 249.1876,
        "meta_ephemeris_type": 0,
        "meta_classification_type": "U",
        "meta_norad_cat_id": 34136,
        "meta_element_set_no": 999,
        "meta_rev_at_epoch": 90163,
        "meta_bstar": 0.00037844723,
        "meta_mean_motion_dot": 3.02e-05,
        "meta_mean_motion_ddot": 0,
        "tle_line1": "1 34136U 93036LH  25357.06825316  .00003020  00000+0  37845-3 0  9995",
        "tle_line2": "2 34136  74.0198  22.2612 0085103 142.4004 249.1876 14.80141649901639"
      },
      "geometry": {
        "type": "Point",
        "coordinates": [
          135.2775333769917,
          72.43034615716982
        ]
      }
    },
    {
      "type": "Feature",
      "properties": {
        "norad_id": 34139,
        "name": "COSMOS 2251 DEB",
        "group": "cosmos-2251-debris",
        "lat": 36.02384926323487,
        "lon": -115.69058032606259,
        "alt_km": 696.1031586441477,
        "timestamp": "2025-12-24T03:53:30.041059+00:00",
        "meta_object_name": "COSMOS 2251 DEB",
        "meta_object_id": "1993-036LL",
        "meta_epoch": "2025-12-23T16:20:14.563968",
        "meta_mean_motion": 14.59195329,
        "meta_eccentricity": 0.004245,
        "meta_inclination": 74.0296,
        "meta_ra_of_asc_node": 233.2073,
        "meta_arg_of_pericenter": 302.5138,
        "meta_mean_anomaly": 86.8427,
        "meta_ephemeris_type": 0,
        "meta_classification_type": "U",
        "meta_norad_cat_id": 34139,
        "meta_element_set_no": 999,
        "meta_rev_at_epoch": 88309,
        "meta_bstar": 0.0012715,
        "meta_mean_motion_dot": 6.046e-05,
        "meta_mean_motion_ddot": 0,
        "tle_line1": "1 34139U 93036LL  25357.68072412  .00006046  00000+0  12715-2 0  9996",
        "tle_line2": "2 34139  74.0296 233.2073 0042450 302.5138  86.8427 14.59195329883098"
      },
      "geometry": {
        "type": "Point",
        "coordinates": [
          -115.69058032606259,
          36.02384926323487
        ]
      }
    }
  ]
}